ENTRYSAT                
1 44429U 98067QP  19283.86738264  .00008759  00000-0  14478-3 0  9996
2 44429  51.6407 146.3695 0003939 117.5730 242.5660 15.53067665 15511
VCC C                   
1 44430U 98067QQ  19283.99677302  .00010437  00000-0  17046-3 0  9997
2 44430  51.6408 145.7337 0004069 125.7899 234.3470 15.53163720 14350
VCC B                   
1 44431U 98067QR  19283.87459391  .00007977  00000-0  13347-3 0  9996
2 44431  51.6410 146.4176 0004188 121.7197 238.4202 15.52868730 15454
